NORAD_CAT_ID,OBJECT_NAME,OBJECT_TYPE,EPOCH,MEAN_MOTION,ECCENTRICITY,INCLINATION,RA_OF_ASC_NODE,ARG_OF_PERICENTER,MEAN_ANOMALY,BSTAR,MEAN_MOTION_DOT,MEAN_MOTION_DDOT,TLE_LINE0,TLE_LINE1,TLE_LINE2,SEMIMAJOR_AXIS,PERIOD,APOGEE,PERIGEE,DECAYED
53821.0,STARLINK-4752,PAYLOAD,2023-03-06 00:00:00,15.47273197,0.0001101,53.2144,149.4262,83.8351,3.0652,-0.012757,-0.00611612,0.0,0 STARLINK-4752,1 53821U 22114D   23065.00001157 -.00611612  00000-0 -12757-1 0  9991,2 53821  53.2144 149.4262 0001101  83.8351   3.0652 15.47273197 26997,6802.844,93.067,425.458,423.96,0.0
53821.0,STARLINK-4752,PAYLOAD,2023-03-06 14:00:01,15.46474043,0.0001501,53.2147,146.6525,76.8495,20.3516,-0.012733,-0.00595042,0.0,0 STARLINK-4752,1 53821U 22114D   23065.58334491 -.00595042  00000-0 -12733-1 0  9996,2 53821  53.2147 146.6525 0001501  76.8495  20.3516 15.46474043 27080,6805.187,93.115,428.074,426.031,0.0
53821.0,STARLINK-4752,PAYLOAD,2023-03-06 22:00:00,15.46051907,0.0001359,53.2147,145.0667,77.9564,75.8082,-0.014601,-0.00666226,0.0,0 STARLINK-4752,1 53821U 22114D   23065.91667824 -.00666226  00000-0 -14601-1 0  9991,2 53821  53.2147 145.0667 0001359  77.9564  75.8082 15.46051907  1300,6806.426,93.14,429.216,427.366,0.0
53821.0,STARLINK-4752,PAYLOAD,2023-03-07 08:00:01,15.45495881,0.0001335,53.2149,143.0876,84.2772,229.4175,-0.015256,-0.00689975,0.0,0 STARLINK-4752,1 53821U 22114D   23066.33334491 -.00689975  00000-0 -15256-1 0  9992,2 53821  53.2149 143.0876 0001335  84.2772 229.4175 15.45495881 27195,6808.058,93.174,430.832,429.015,0.0
53821.0,STARLINK-4752,PAYLOAD,2023-03-07 22:00:00,15.4467381,0.0001294,53.2145,140.3198,83.8544,236.3273,-0.014876,-0.00648766,0.0,0 STARLINK-4752,1 53821U 22114D   23066.91667824 -.00648766  00000-0 -14876-1 0  9995,2 53821  53.2145 140.3198 0001294  83.8544 236.3273 15.44673810 27289,6810.474,93.224,433.22,431.457,0.0
53821.0,STARLINK-4752,PAYLOAD,2023-03-08 22:00:00,15.432974,0.0001397,53.2136,135.5827,80.593,41.0751,-0.015085,-0.00629317,0.0,0 STARLINK-4752,1 53821U 22114D   23067.91667824 -.00629317  00000-0 -15085-1 0  9990,2 53821  53.2136 135.5827 0001397  80.5930  41.0751 15.43297400  1304,6814.522,93.307,437.339,435.435,0.0
53821.0,STARLINK-4752,PAYLOAD,2023-03-09 02:00:01,15.43058617,0.0001316,53.2134,134.7935,88.7975,239.3054,-0.014417,-0.00598958,0.0,0 STARLINK-4752,1 53821U 22114D   23068.08334491 -.00598958  00000-0 -14417-1 0  9994,2 53821  53.2134 134.7935 0001316  88.7975 239.3054 15.43058617 27461,6815.225,93.321,437.987,436.194,0.0
53821.0,STARLINK-4752,PAYLOAD,2023-03-09 22:00:00,15.4193083,0.0001463,53.213,130.8553,85.4443,192.779,-0.015781,-0.00628706,0.0,0 STARLINK-4752,1 53821U 22114D   23068.91667824 -.00628706  00000-0 -15781-1 0  9995,2 53821  53.2130 130.8553 0001463  85.4443 192.7790 15.41930830 27594,6818.548,93.389,441.411,439.416,0.0
53821.0,STARLINK-4752,PAYLOAD,2023-03-10 00:00:00,15.41799243,0.0001373,53.2128,130.4613,85.1413,295.9106,-0.014906,-0.00593916,0.0,0 STARLINK-4752,1 53821U 22114D   23069.00001157 -.00593916  00000-0 -14906-1 0  9999,2 53821  53.2128 130.4613 0001373  85.1413 295.9106 15.41799243  1307,6818.936,93.397,441.737,439.865,0.0
53821.0,STARLINK-4752,PAYLOAD,2023-03-10 22:00:00,15.40557106,0.0001328,53.213,126.1373,79.9921,349.863,-0.016231,-0.00618395,0.0,0 STARLINK-4752,1 53821U 22114D   23069.91667824 -.00618395  00000-0 -16231-1 0  9990,2 53821  53.2130 126.1373 0001328  79.9921 349.8630 15.40557106 27757,6822.601,93.473,445.372,443.56,0.0
53821.0,STARLINK-4752,PAYLOAD,2023-03-11 14:00:01,15.39642083,0.0001568,53.2132,122.9991,73.8592,94.4036,-0.016234,-0.00601375,0.0,0 STARLINK-4752,1 53821U 22114D   23070.58335648 -.00601375  00000-0 -16234-1 0  9994,2 53821  53.2132 122.9991 0001568  73.8592  94.4036 15.39642083 27853,6825.304,93.528,448.239,446.099,0.0
53821.0,STARLINK-4752,PAYLOAD,2023-03-11 22:00:00,15.39190445,0.0001499,53.2134,121.4291,85.9901,130.5637,-0.016947,-0.00617189,0.0,0 STARLINK-4752,1 53821U 22114D   23070.91667824 -.00617189  00000-0 -16947-1 0  9996,2 53821  53.2134 121.4291 0001499  85.9901 130.5637 15.39190445  1304,6826.639,93.556,449.527,447.481,0.0
53821.0,STARLINK-4752,PAYLOAD,2023-03-12 10:00:00,15.3851317,0.0001516,53.2135,119.0802,78.0624,29.989,-0.017716,-0.00637279,0.0,0 STARLINK-4752,1 53821U 22114D   23071.41667824 -.00637279  00000-0 -17716-1 0  9999,2 53821  53.2135 119.0802 0001516  78.0624  29.9890 15.38513170 27988,6828.642,93.597,451.542,449.472,0.0
53821.0,STARLINK-4752,PAYLOAD,2023-03-12 14:00:01,15.38278839,0.0001429,53.2136,118.2976,78.5764,233.033,-0.017107,-0.00605528,0.0,0 STARLINK-4752,1 53821U 22114D   23071.58334491 -.00605528  00000-0 -17107-1 0  9994,2 53821  53.2136 118.2976 0001429  78.5764 233.0330 15.38278839  1300,6829.336,93.611,452.177,450.225,0.0
53821.0,STARLINK-4752,PAYLOAD,2023-03-13 00:00:00,15.37700829,0.0001391,53.2137,116.3393,87.7469,12.1707,-0.017172,-0.00597096,0.0,0 STARLINK-4752,1 53821U 22114D   23072.00001157 -.00597096  00000-0 -17172-1 0  9994,2 53821  53.2137 116.3393 0001391  87.7469  12.1707 15.37700829  1307,6831.047,93.646,453.862,451.962,0.0
53821.0,STARLINK-4752,PAYLOAD,2023-03-13 14:00:01,15.36916365,0.0001441,53.2137,113.6058,75.8226,14.272,-0.018121,-0.00619923,0.0,0 STARLINK-4752,1 53821U 22114D   23072.58334491 -.00619923  00000-0 -18121-1 0  9996,2 53821  53.2137 113.6058 0001441  75.8226  14.2720 15.36916365 28164,6833.371,93.694,456.221,454.252,0.0
53821.0,STARLINK-4752,PAYLOAD,2023-03-13 22:00:00,15.36446662,0.0001395,53.2138,112.0423,85.5355,49.6349,-0.017975,-0.00599808,0.0,0 STARLINK-4752,1 53821U 22114D   23072.91667824 -.00599808  00000-0 -17975-1 0  9997,2 53821  53.2138 112.0423 0001395  85.5355  49.6349 15.36446662  1307,6834.764,93.723,457.582,455.675,0.0
53821.0,STARLINK-4752,PAYLOAD,2023-03-14 08:00:01,15.35899045,0.0001478,53.2136,110.0931,84.011,196.7172,-0.019694,-0.00649727,0.0,0 STARLINK-4752,1 53821U 22114D   23073.33334491 -.00649727  00000-0 -19694-1 0  9991,2 53821  53.2136 110.0931 0001478  84.0110 196.7172 15.35899045 28271,6836.388,93.756,459.264,457.243,0.0
53821.0,STARLINK-4752,PAYLOAD,2023-03-14 14:00:01,15.35554248,0.0001497,53.2134,108.9241,79.3228,144.3273,-0.019224,-0.00628701,0.0,0 STARLINK-4752,1 53821U 22114D   23073.58334491 -.00628701  00000-0 -19224-1 0  9996,2 53821  53.2134 108.9241 0001497  79.3228 144.3273 15.35554248  1306,6837.412,93.777,460.3,458.253,0.0
53821.0,STARLINK-4752,PAYLOAD,2023-03-14 22:00:00,15.35078191,0.0001387,53.2134,107.3638,89.5176,177.5674,-0.018666,-0.0060292,0.0,0 STARLINK-4752,1 53821U 22114D   23073.91667824 -.00602920  00000-0 -18666-1 0  9996,2 53821  53.2134 107.3638 0001387  89.5176 177.5674 15.35078191  1303,6838.825,93.806,461.639,459.742,0.0
53821.0,STARLINK-4752,PAYLOAD,2023-03-15 14:00:01,15.3419571,0.000139,53.213,104.2521,77.6258,274.6497,-0.02054,-0.00642125,0.0,0 STARLINK-4752,1 53821U 22114D   23074.58334491 -.00642125  00000-0 -20540-1 0  9996,2 53821  53.2130 104.2521 0001390  77.6258 274.6497 15.34195710 28474,6841.448,93.86,464.263,462.362,0.0
53821.0,STARLINK-4752,PAYLOAD,2023-03-15 22:00:00,15.33711411,0.0001293,53.213,102.6951,88.4542,305.6167,-0.019483,-0.00602442,0.0,0 STARLINK-4752,1 53821U 22114D   23074.91667824 -.00602442  00000-0 -19483-1 0  9994,2 53821  53.2130 102.6951 0001293  88.4542 305.6167 15.33711411  1304,6842.888,93.89,465.637,463.868,0.0
53821.0,STARLINK-4752,PAYLOAD,2023-03-16 14:00:01,15.32835064,0.0001436,53.2126,99.5897,75.5318,40.4433,-0.021876,-0.00654066,0.0,0 STARLINK-4752,1 53821U 22114D   23075.58334491 -.00654066  00000-0 -21876-1 0  9997,2 53821  53.2126  99.5897 0001436  75.5318  40.4433 15.32835064 28623,6845.496,93.944,468.344,466.378,0.0
53821.0,STARLINK-4752,PAYLOAD,2023-03-16 22:00:00,15.32345884,0.0001361,53.2127,98.036,89.144,66.9839,-0.020401,-0.00604025,0.0,0 STARLINK-4752,1 53821U 22114D   23075.91667824 -.00604025  00000-0 -20401-1 0  9996,2 53821  53.2127  98.0360 0001361  89.1440  66.9839 15.32345884  1302,6846.952,93.974,469.749,467.885,0.0
53821.0,STARLINK-4752,PAYLOAD,2023-03-17 14:00:01,15.31477233,0.0001427,53.2124,94.937,82.3354,152.4088,-0.023444,-0.00670344,0.0,0 STARLINK-4752,1 53821U 22114D   23076.58334491 -.00670344  00000-0 -23444-1 0  9998,2 53821  53.2124  94.9370 0001427  82.3354 152.4088 15.31477233  1307,6849.541,94.027,472.384,470.429,0.0
53821.0,STARLINK-4752,PAYLOAD,2023-03-17 16:00:00,15.31375738,0.0001313,53.2125,94.549,83.7705,250.6484,-0.024662,-0.007005,0.0,0 STARLINK-4752,1 53821U 22114D   23076.66667824 -.00700500  00000-0 -24662-1 0  9997,2 53821  53.2125  94.5490 0001313  83.7705 250.6484 15.31375738 28785,6849.844,94.033,472.608,470.809,0.0
53821.0,STARLINK-4752,PAYLOAD,2023-03-17 22:00:00,15.30978013,0.0001302,53.2127,93.3863,94.4246,178.833,-0.021205,-0.00601595,0.0,0 STARLINK-4752,1 53821U 22114D   23076.91667824 -.00601595  00000-0 -21205-1 0  9999,2 53821  53.2127  93.3863 0001302  94.4246 178.8330 15.30978013  1309,6851.03,94.058,473.787,472.003,0.0
53821.0,STARLINK-4752,PAYLOAD,2023-03-18 06:00:00,15.30551696,0.0001366,53.2127,91.8398,88.0862,223.1123,-0.023879,-0.00663782,0.0,0 STARLINK-4752,1 53821U 22114D   23077.25001157 -.00663782  00000-0 -23879-1 0  9993,2 53821  53.2127  91.8398 0001366  88.0862 223.1123 15.30551696 28877,6852.302,94.084,475.103,473.231,0.0
53821.0,STARLINK-4752,PAYLOAD,2023-03-18 22:00:00,15.296115,0.0001252,53.2127,88.746,91.2976,294.1608,-0.022134,-0.00601779,0.0,0 STARLINK-4752,1 53821U 22114D   23077.91667824 -.00601779  00000-0 -22134-1 0  9996,2 53821  53.2127  88.7460 0001252  91.2976 294.1608 15.29611500 28985,6855.11,94.142,477.833,476.117,0.0
53821.0,STARLINK-4752,PAYLOAD,2023-03-19 14:00:01,15.2875131,0.0001341,53.2127,85.6595,76.5395,20.9626,-0.026167,-0.00686106,0.0,0 STARLINK-4752,1 53821U 22114D   23078.58334491 -.00686106  00000-0 -26167-1 0  9998,2 53821  53.2127  85.6595 0001341  76.5395  20.9626 15.28751310  1305,6857.681,94.195,480.466,478.626,0.0
